{
    "links": {
        "self": "http://www.neowsapp.com/rest/v1/neo/3265391?api_key=iIulBulltgU6a56xZRHN4H3l9WmuAYTsLGpBGhQ2"
    },
    "id": "3265391",
    "neo_reference_id": "3265391",
    "name": "(2005 AK3)",
    "designation": "2005 AK3",
    "nasa_jpl_url": "http://ssd.jpl.nasa.gov/sbdb.cgi?sstr=3265391",
    "absolute_magnitude_h": 24.4,
    "estimated_diameter": {
        "kilometers": {
            "estimated_diameter_min": 0.0350392641,
            "estimated_diameter_max": 0.0783501764
        },
        "meters": {
            "estimated_diameter_min": 35.0392641108,
            "estimated_diameter_max": 78.3501764334
        },
        "miles": {
            "estimated_diameter_min": 0.0217723826,
            "estimated_diameter_max": 0.0486845275
        },
        "feet": {
            "estimated_diameter_min": 114.9582192654,
            "estimated_diameter_max": 257.0543928497
        }
    },
    "is_potentially_hazardous_asteroid": false,
    "close_approach_data": [
        {
            "close_approach_date": "2005-01-19",
            "close_approach_date_full": "2005-Jan-19 22:54",
            "epoch_date_close_approach": 1106175240000,
            "relative_velocity": {
                "kilometers_per_second": "11.4297024144",
                "kilometers_per_hour": "41146.9286919498",
                "miles_per_hour": "25567.1013308396"
            },
            "miss_distance": {
                "astronomical": "0.0232603362",
                "lunar": "9.0482707818",
                "kilometers": "3479696.751003894",
                "miles": "2162183.2993019772"
            },
            "orbiting_body": "Earth"
        }
    ],
    "orbital_data": {
        "orbit_id": "16",
        "orbit_determination_date": "2017-04-06 09:11:37",
        "first_observation_date": "2005-01-06",
        "last_observation_date": "2005-01-20",
        "data_arc_in_days": 14,
        "observations_used": 85,
        "orbit_uncertainty": "8",
        "minimum_orbit_intersection": ".00452891",
        "jupiter_tisserand_invariant": "3.454",
        "epoch_osculation": "2453385.5",
        "eccentricity": ".5789463192932051",
        "semi_major_axis": "2.166327153927111",
        "inclination": "1.590911106889828",
        "ascending_node_longitude": "294.0701642298371",
        "orbital_period": "1164.620665182236",
        "perihelion_distance": ".9121400217760853",
        "perihelion_argument": "226.4951582575627",
        "aphelion_distance": "3.420514286078135",
        "perihelion_time": "2453419.935789010709",
        "mean_anomaly": "349.3554318462008",
        "mean_motion": ".3091135257707869",
        "equinox": "J2000",
        "orbit_class": {
            "orbit_class_type": "APO",
            "orbit_class_description": "Near-Earth asteroid orbits which cross the Earth’s orbit similar to that of 1862 Apollo",
            "orbit_class_range": "a (semi-major axis) > 1.0 AU; q (perihelion) < 1.017 AU"
        }
    },
    "is_sentry_object": false
}